TIANWANG 1C (TW-1C)     
1 40926U 15051B   17149.39220905  .00012199  00000-0  28344-3 0  9991
2 40926  97.2304 189.1005 0010302 230.7276 255.3962 15.42434220 94029
TIANWANG 1B (TW-1B)     
1 40927U 15051C   17149.58352833  .00012427  00000-0  29935-3 0  9990
2 40927  97.2395 189.3168 0010165 238.1142 273.7767 15.41344043 94000
TIANWANG 1A (TW-1A)     
1 40928U 15051D   17149.39746421  .00005950  00000-0  17187-3 0  9999
2 40928  97.2275 185.5519 0010834 264.5701 220.2589 15.35975810 93815
LAPAN-A2 (IO-86)        
1 40931U 15052B   17149.39894121  .00000302  00000-0 -47203-4 0  9995
2 40931   5.9998   6.5898 0013733 335.1704  24.7799 14.76527170 90181
LQSAT                   
1 40958U 15057A   17149.49902446  .00000196  00000-0  38206-4 0  9993
2 40958  97.9778 225.1457 0019599 124.6126 235.6936 14.72965259 88365
CHUBUSAT-2              
1 41338U 16012B   17149.51681851  .00000443  00000-0  28093-4 0  9993
2 41338  31.0028 230.8367 0013968 235.1354 124.7968 14.99732231 70188
CHUBUSAT-3              
1 41339U 16012C   17149.51413551  .00000607  00000-0  40822-4 0  9990
2 41339  31.0108 230.0280 0014207 240.0294 119.8940 14.99939047 70166
OUFTI-1                 
1 41458U 16025C   17149.60555404  .00001744  00000-0  97519-4 0  9998
2 41458  98.1891 186.1207 0173966 352.3497   7.5078 15.03110614 59799
E-ST@R-II               
1 41459U 16025D   17149.62461538  .00002634  00000-0  14515-3 0  9998
2 41459  98.1881 186.0921 0174332 352.7469   7.1236 15.02961226 59785
AAUSAT 4                
1 41460U 16025E   17149.36669540  .00004891  00000-0  26558-3 0  9991
2 41460  98.1790 185.9126 0167116 351.8135   8.0396 15.03824136 59767
NUSAT 1 (LO-87)         
1 41557U 16033B   17149.60009448  .00002294  00000-0  89158-4 0  9990
2 41557  97.4632 229.1171 0016003  75.6892 284.6122 15.26982785 55597
BEESAT-4                
1 41619U 16040W   17149.10918984  .00002617  00000-0  12205-3 0  9993
2 41619  97.4631 211.6800 0013551 130.3641 229.8780 15.20675758 39693
PRATHAM                 
1 41783U 16059A   17149.48735752  .00000084  00000-0  25938-4 0  9990
2 41783  98.1683 211.0532 0032858 217.5926 142.2979 14.62834578 35866
ALSAT 1N                
1 41789U 16059G   17149.55970850  .00000417  00000-0  88422-4 0  9991
2 41789  98.1685 211.5893 0027970 210.2081 149.7520 14.64045390 35884
NAYIF-1 (EO-88)         
1 42017U 17008BX  17149.44587322  .00002875  00000-0  12566-3 0  9992
2 42017  97.4958 210.9378 0004915 291.8554  68.2159 15.22900703 15636
